[{"OBJECT_NAME":"STARLINK-35568","OBJECT_ID":"2025-262T","EPOCH":"2026-03-09T01:07:47.641152","MEAN_MOTION":15.2758483,"ECCENTRICITY":0.00032171,"INCLINATION":42.9996,"RA_OF_ASC_NODE":300.1837,"ARG_OF_PERICENTER":239.9287,"MEAN_ANOMALY":120.1246,"EPHEMERIS_TYPE":0,"CLASSIFICATION_TYPE":"U","NORAD_CAT_ID":66473,"ELEMENT_SET_NO":999,"REV_AT_EPOCH":1880,"BSTAR":0.00082086586,"MEAN_MOTION_DOT":0.000224,"MEAN_MOTION_DDOT":0},{"OBJECT_NAME":"OBJECT A","OBJECT_ID":"2025-234A","EPOCH":"2026-03-09T23:03:34.210368","MEAN_MOTION":15.32505956,"ECCENTRICITY":0.00130678,"INCLINATION":97.4388,"RA_OF_ASC_NODE":139.352,"ARG_OF_PERICENTER":148.634,"MEAN_ANOMALY":211.5684,"EPHEMERIS_TYPE":0,"CLASSIFICATION_TYPE":"U","NORAD_CAT_ID":66053,"ELEMENT_SET_NO":999,"REV_AT_EPOCH":2164,"BSTAR":0.0014840662,"MEAN_MOTION_DOT":0.00046856,"MEAN_MOTION_DDOT":0}]
